{"type": "FeatureCollection", "features": [ {"type": "Feature", "properties": {"norad_id": 40803, "name": "COSMOS 2251 DEB", "group": "cosmos-2251-debris", "lat": -29.767952912319878, "lon": 16.15378431378788, "alt_km": 724.7815478196471, "timestamp": "2025-12-26T16:33:55.968506+00:00", "meta": {"OBJECT_NAME": "COSMOS 2251 DEB", "OBJECT_ID": "1993-036BWG", "EPOCH": "2025-12-24T20:03:27.634464", "MEAN_MOTION": 14.51846049, "ECCENTRICITY": 0.00342953, "INCLINATION": 74.0134, "RA_OF_ASC_NODE": 29.0874, "ARG_OF_PERICENTER": 243.7253, "MEAN_ANOMALY": 116.0383, "EPHEMERIS_TYPE": 0, "CLASSIFICATION_TYPE": "U", "NORAD_CAT_ID": 40803, "ELEMENT_SET_NO": 999, "REV_AT_EPOCH": 58928, "BSTAR": 0.00027268389, "MEAN_MOTION_DOT": 1.077e-05, "MEAN_MOTION_DDOT": 0}, "tle": {"line1": "1 40803U 93036BWG 25358.83573651  .00001077  00000+0  27268-3 0  9999", "line2": "2 40803  74.0134  29.0874 0034295 243.7253 116.0383 14.51846049589281"}}, "geometry": {"type": "Point", "coordinates": [16.15378431378788, -29.767952912319878]}}, {"type": "Feature", "properties": {"norad_id": 40808, "name": "COSMOS 2251 DEB", "group": "cosmos-2251-debris", "lat": -43.361053916306616, "lon": 102.86037960838287, "alt_km": 679.9678476359786, "timestamp": "2025-12-26T16:33:55.968515+00:00", "meta": {"OBJECT_NAME": "COSMOS 2251 DEB", "OBJECT_ID": "1993-036BWM", "EPOCH": "2025-12-26T00:57:19.369728", "MEAN_MOTION": 14.67714276, "ECCENTRICITY": 0.00079356, "INCLINATION": 74.0421, "RA_OF_ASC_NODE": 119.7933, "ARG_OF_PERICENTER": 153.9486, "MEAN_ANOMALY": 325.2565, "EPHEMERIS_TYPE": 0, "CLASSIFICATION_TYPE": "U", "NORAD_CAT_ID": 40808, "ELEMENT_SET_NO": 999, "REV_AT_EPOCH": 63814, "BSTAR": 0.0017405613, "MEAN_MOTION_DOT": 9.901e-05, "MEAN_MOTION_DDOT": 0}, "tle": {"line1": "1 40808U 93036BWM 25360.03980752  .00009901  00000+0  17406-2 0  9999", "line2": "2 40808  74.0421 119.7933 0007935 153.9486 325.2565 14.67714276638148"}}, "geometry": {"type": "Point", "coordinates": [102.86037960838287, -43.361053916306616]}}, {"type": "Feature", "properties": {"norad_id": 40810, "name": "COSMOS 2251 DEB", "group": "cosmos-2251-debris", "lat": 30.179735769676537, "lon": -141.4112055894189, "alt_km": 686.8837782921928, "timestamp": "2025-12-26T16:33:55.968524+00:00", "meta": {"OBJECT_NAME": "COSMOS 2251 DEB", "OBJECT_ID": "1993-036BWP", "EPOCH": "2025-12-23T03:56:49.945344", "MEAN_MOTION": 14.58782513, "ECCENTRICITY": 0.00180471, "INCLINATION": 74.0361, "RA_OF_ASC_NODE": 54.8832, "ARG_OF_PERICENTER": 205.863, "MEAN_ANOMALY": 154.1635, "EPHEMERIS_TYPE": 0, "CLASSIFICATION_TYPE": "U", "NORAD_CAT_ID": 40810, "ELEMENT_SET_NO": 999, "REV_AT_EPOCH": 61835, "BSTAR": 0.0007215593, "MEAN_MOTION_DOT": 3.351e-05, "MEAN_MOTION_DDOT": 0}, "tle": {"line1": "1 40810U 93036BWP 25357.16446696  .00003351  00000+0  72156-3 0  9993", "line2": "2 40810  74.0361  54.8832 0018047 205.8630 154.1635 14.58782513618352"}}, "geometry": {"type": "Point", "coordinates": [-141.4112055894189, 30.179735769676537]}}, {"type": "Feature", "properties": {"norad_id": 46271, "name": "COSMOS 2251 DEB", "group": "cosmos-2251-debris", "lat": 19.57846871331282, "lon": 57.815315684203256, "alt_km": 745.032289392283, "timestamp": "2025-12-26T16:33:55.968533+00:00", "meta": {"OBJECT_NAME": "COSMOS 2251 DEB", "OBJECT_ID": "1993-036BWT", "EPOCH": "2025-12-23T10:43:26.670144", "MEAN_MOTION": 14.51452008, "ECCENTRICITY": 0.00396452, "INCLINATION": 74.0466, "RA_OF_ASC_NODE": 58.0745, "ARG_OF_PERICENTER": 177.4947, "MEAN_ANOMALY": 182.6421, "EPHEMERIS_TYPE": 0, "CLASSIFICATION_TYPE": "U", "NORAD_CAT_ID": 46271, "ELEMENT_SET_NO": 999, "REV_AT_EPOCH": 84797, "BSTAR": 0.00025039909, "MEAN_MOTION_DOT": 9.82e-06, "MEAN_MOTION_DDOT": 0}, "tle": {"line1": "1 46271U 93036BWT 25357.44683646  .00000982  00000+0  25040-3 0  9996", "line2": "2 46271  74.0466  58.0745 0039645 177.4947 182.6421 14.51452008847973"}}, "geometry": {"type": "Point", "coordinates": [57.815315684203256, 19.57846871331282]}}, {"type": "Feature", "properties": {"norad_id": 46430, "name": "COSMOS 2251 DEB", "group": "cosmos-2251-debris", "lat": 72.61254175646958, "lon": 37.033232628806665, "alt_km": 783.6194350996557, "timestamp": "2025-12-26T16:33:55.968542+00:00", "meta": {"OBJECT_NAME": "COSMOS 2251 DEB", "OBJECT_ID": "1993-036BWU", "EPOCH": "2025-12-22T16:14:06.887040", "MEAN_MOTION": 14.51442901, "ECCENTRICITY": 0.01029275, "INCLINATION": 73.9145, "RA_OF_ASC_NODE": 337.5005, "ARG_OF_PERICENTER": 256.0795, "MEAN_ANOMALY": 102.8901, "EPHEMERIS_TYPE": 0, "CLASSIFICATION_TYPE": "U", "NORAD_CAT_ID": 46430, "ELEMENT_SET_NO": 999, "REV_AT_EPOCH": 79827, "BSTAR": 0.0019695835, "MEAN_MOTION_DOT": 8.403e-05, "MEAN_MOTION_DDOT": 0}, "tle": {"line1": "1 46430U 93036BWU 25356.67646860  .00008403  00000+0  19696-2 0  9999", "line2": "2 46430  73.9145 337.5005 0102927 256.0795 102.8901 14.51442901798271"}}, "geometry": {"type": "Point", "coordinates": [37.033232628806665, 72.61254175646958]}}, {"type": "Feature", "properties": {"norad_id": 46432, "name": "COSMOS 2251 DEB", "group": "cosmos-2251-debris", "lat": -32.38521902990475, "lon": -80.11289567846289, "alt_km": 776.2075222322956, "timestamp": "2025-12-26T16:33:55.968551+00:00", "meta": {"OBJECT_NAME": "COSMOS 2251 DEB", "OBJECT_ID": "1993-036BWW", "EPOCH": "2025-12-25T00:54:04.722624", "MEAN_MOTION": 13.36660179, "ECCENTRICITY": 0.04737205, "INCLINATION": 73.8746, "RA_OF_ASC_NODE": 91.9173, "ARG_OF_PERICENTER": 207.4888, "MEAN_ANOMALY": 335.6994, "EPHEMERIS_TYPE": 0, "CLASSIFICATION_TYPE": "U", "NORAD_CAT_ID": 46432, "ELEMENT_SET_NO": 999, "REV_AT_EPOCH": 67130, "BSTAR": 0.00092584102, "MEAN_MOTION_DOT": 8.9e-06, "MEAN_MOTION_DDOT": 0}, "tle": {"line1": "1 46432U 93036BWW 25359.03755466  .00000890  00000+0  92584-3 0  9997", "line2": "2 46432  73.8746  91.9173 0473720 207.4888 335.6994 13.36660179671304"}}, "geometry": {"type": "Point", "coordinates": [-80.11289567846289, -32.38521902990475]}}, {"type": "Feature", "properties": {"norad_id": 47045, "name": "COSMOS 2251 DEB", "group": "cosmos-2251-debris", "lat": -12.037666139277487, "lon": 119.97753180027522, "alt_km": 764.4813462456268, "timestamp": "2025-12-26T16:33:55.968560+00:00", "meta": {"OBJECT_NAME": "COSMOS 2251 DEB", "OBJECT_ID": "1993-036BWZ", "EPOCH": "2025-12-22T15:55:55.342272", "MEAN_MOTION": 14.38905258, "ECCENTRICITY": 0.00303733, "INCLINATION": 74.058, "RA_OF_ASC_NODE": 130.8857, "ARG_OF_PERICENTER": 270.255, "MEAN_ANOMALY": 108.4261, "EPHEMERIS_TYPE": 0, "CLASSIFICATION_TYPE": "U", "NORAD_CAT_ID": 47045, "ELEMENT_SET_NO": 999, "REV_AT_EPOCH": 7948, "BSTAR": 8.0309913e-05, "MEAN_MOTION_DOT": 2.22e-06, "MEAN_MOTION_DDOT": 0}, "tle": {"line1": "1 47045U 93036BWZ 25356.66383498  .00000222  00000+0  80310-4 0  9990", "line2": "2 47045  74.0580 130.8857 0030373 270.2550 108.4261 14.38905258 79480"}}, "geometry": {"type": "Point", "coordinates": [119.97753180027522, -12.037666139277487]}}, {"type": "Feature", "properties": {"norad_id": 47048, "name": "COSMOS 2251 DEB", "group": "cosmos-2251-debris", "lat": -47.60663817847672, "lon": 131.1337996400098, "alt_km": 759.9836726197473, "timestamp": "2025-12-26T16:33:55.968570+00:00", "meta": {"OBJECT_NAME": "COSMOS 2251 DEB", "OBJECT_ID": "1993-036BXC", "EPOCH": "2025-12-25T13:52:22.612800", "MEAN_MOTION": 14.52412051, "ECCENTRICITY": 0.0132398, "INCLINATION": 73.978, "RA_OF_ASC_NODE": 294.8913, "ARG_OF_PERICENTER": 119.414, "MEAN_ANOMALY": 56.3605, "EPHEMERIS_TYPE": 0, "CLASSIFICATION_TYPE": "U", "NORAD_CAT_ID": 47048, "ELEMENT_SET_NO": 999, "REV_AT_EPOCH": 59876, "BSTAR": 0.0011784, "MEAN_MOTION_DOT": 5.362e-05, "MEAN_MOTION_DDOT": 0}, "tle": {"line1": "1 47048U 93036BXC 25359.57803950  .00005362  00000+0  11784-2 0  9993", "line2": "2 47048  73.9780 294.8913 0132398 119.4140  56.3605 14.52412051598766"}}, "geometry": {"type": "Point", "coordinates": [131.1337996400098, -47.60663817847672]}}, {"type": "Feature", "properties": {"norad_id": 47051, "name": "COSMOS 2251 DEB", "group": "cosmos-2251-debris", "lat": -51.23342106153627, "lon": 1.5849511480509462, "alt_km": 812.8417766462253, "timestamp": "2025-12-26T16:33:55.968579+00:00", "meta": {"OBJECT_NAME": "COSMOS 2251 DEB", "OBJECT_ID": "1993-036BXF", "EPOCH": "2025-12-13T06:55:53.868288", "MEAN_MOTION": 13.67117141, "ECCENTRICITY": 0.03401033, "INCLINATION": 74.1001, "RA_OF_ASC_NODE": 182.6908, "ARG_OF_PERICENTER": 296.1774, "MEAN_ANOMALY": 246.9893, "EPHEMERIS_TYPE": 0, "CLASSIFICATION_TYPE": "U", "NORAD_CAT_ID": 47051, "ELEMENT_SET_NO": 999, "REV_AT_EPOCH": 59945, "BSTAR": 0.0019326179, "MEAN_MOTION_DOT": 2.391e-05, "MEAN_MOTION_DDOT": 0}, "tle": {"line1": "1 47051U 93036BXF 25347.28881792  .00002391  00000+0  19326-2 0  9991", "line2": "2 47051  74.1001 182.6908 0340103 296.1774 246.9893 13.67117141599458"}}, "geometry": {"type": "Point", "coordinates": [1.5849511480509462, -51.23342106153627]}}, {"type": "Feature", "properties": {"norad_id": 47052, "name": "COSMOS 2251 DEB", "group": "cosmos-2251-debris", "lat": 48.55374703698883, "lon": 115.86026419324192, "alt_km": 778.2180075604647, "timestamp": "2025-12-26T16:33:55.968588+00:00", "meta": {"OBJECT_NAME": "COSMOS 2251 DEB", "OBJECT_ID": "1993-036BXG", "EPOCH": "2025-12-24T16:17:22.199424", "MEAN_MOTION": 14.35501409, "ECCENTRICITY": 0.00585143, "INCLINATION": 74.0496, "RA_OF_ASC_NODE": 318.4427, "ARG_OF_PERICENTER": 29.3671, "MEAN_ANOMALY": 147.8065, "EPHEMERIS_TYPE": 0, "CLASSIFICATION_TYPE": "U", "NORAD_CAT_ID": 47052, "ELEMENT_SET_NO": 999, "REV_AT_EPOCH": 61960, "BSTAR": 0.00031599751, "MEAN_MOTION_DOT": 9.01e-06, "MEAN_MOTION_DDOT": 0}, "tle": {"line1": "1 47052U 93036BXG 25358.67872916  .00000901  00000+0  31600-3 0  9990", "line2": "2 47052  74.0496 318.4427 0058514  29.3671 147.8065 14.35501409619605"}}, "geometry": {"type": "Point", "coordinates": [115.86026419324192, 48.55374703698883]}}]}